{
    "links": {
        "self": "http://www.neowsapp.com/rest/v1/neo/3824971?api_key=iIulBulltgU6a56xZRHN4H3l9WmuAYTsLGpBGhQ2"
    },
    "id": "3824971",
    "neo_reference_id": "3824971",
    "name": "(2018 KK)",
    "designation": "2018 KK",
    "nasa_jpl_url": "http://ssd.jpl.nasa.gov/sbdb.cgi?sstr=3824971",
    "absolute_magnitude_h": 25.2,
    "estimated_diameter": {
        "kilometers": {
            "estimated_diameter_min": 0.0242412481,
            "estimated_diameter_max": 0.0542050786
        },
        "meters": {
            "estimated_diameter_min": 24.2412481101,
            "estimated_diameter_max": 54.2050786336
        },
        "miles": {
            "estimated_diameter_min": 0.0150628086,
            "estimated_diameter_max": 0.0336814639
        },
        "feet": {
            "estimated_diameter_min": 79.5316564495,
            "estimated_diameter_max": 177.8381901842
        }
    },
    "is_potentially_hazardous_asteroid": false,
    "close_approach_data": [
        {
            "close_approach_date": "2018-05-21",
            "close_approach_date_full": "2018-May-21 02:49",
            "epoch_date_close_approach": 1526870940000,
            "relative_velocity": {
                "kilometers_per_second": "9.1106959529",
                "kilometers_per_hour": "32798.5054304248",
                "miles_per_hour": "20379.7157770326"
            },
            "miss_distance": {
                "astronomical": "0.0309663835",
                "lunar": "12.0459231815",
                "kilometers": "4632505.013203145",
                "miles": "2878505.137147601"
            },
            "orbiting_body": "Earth"
        }
    ],
    "orbital_data": {
        "orbit_id": "5",
        "orbit_determination_date": "2018-05-24 06:24:29",
        "first_observation_date": "2018-05-16",
        "last_observation_date": "2018-05-24",
        "data_arc_in_days": 8,
        "observations_used": 110,
        "orbit_uncertainty": "7",
        "minimum_orbit_intersection": ".0308103",
        "jupiter_tisserand_invariant": "3.632",
        "epoch_osculation": "2459000.5",
        "eccentricity": ".4996544796501811",
        "semi_major_axis": "2.030183833337418",
        "inclination": "8.888442948530498",
        "ascending_node_longitude": "233.7427677393196",
        "orbital_period": "1056.57778329785",
        "perihelion_distance": "1.015793386497001",
        "perihelion_argument": "26.87931548225372",
        "aphelion_distance": "3.044574280177835",
        "perihelion_time": "2459333.932691526937",
        "mean_anomaly": "246.3919241468103",
        "mean_motion": ".3407226667934923",
        "equinox": "J2000",
        "orbit_class": {
            "orbit_class_type": "APO",
            "orbit_class_description": "Near-Earth asteroid orbits which cross the Earth’s orbit similar to that of 1862 Apollo",
            "orbit_class_range": "a (semi-major axis) > 1.0 AU; q (perihelion) < 1.017 AU"
        }
    },
    "is_sentry_object": false
}